ONEWEB-0560             
1 55145U 23004F   24167.92976863 -.00000593  00000+0 -15362-2 0  9996
2 55145  87.9144 121.0565 0002652  76.8668 283.2760 13.18692710 73333
ONEWEB-0565             
1 55146U 23004G   24167.92344438  .00000044  00000+0  80119-4 0  9997
2 55146  87.9140 121.1358 0002092  62.9837 297.1508 13.18685109 73320
ONEWEB-0567             
1 55147U 23004H   24167.91712578  .00000033  00000+0  51551-4 0  9997
2 55147  87.9140 121.0906 0002300  69.3125 290.8253 13.18686374 73324
ONEWEB-0569             
1 55148U 23004J   24167.85462791 -.00000263  00000+0 -75598-3 0  9993
2 55148  87.8930 105.7685 0002855  60.8954 299.2461 13.13470189 74173
ONEWEB-0570             
1 55149U 23004K   24167.82860316  .00000073  00000+0  15257-3 0  9999
2 55149  87.9143 121.1050 0001355  69.9011 290.2267 13.18685528 73306
ONEWEB-0571             
1 55150U 23004L   24167.89814549  .00000075  00000+0  15788-3 0  9996
2 55150  87.9142 121.0970 0002248  52.4861 307.6475 13.18687518 73326
ONEWEB-0572             
1 55151U 23004M   24167.95091982  .00000076  00000+0  16178-3 0  9997
2 55151  87.9164 151.4341 0001885  82.1393 277.9953 13.17648945 71188
ONEWEB-0573             
1 55152U 23004N   24167.89181947  .00000094  00000+0  20523-3 0  9991
2 55152  87.9140 121.1194 0001923  52.8645 307.2663 13.18684809 73312
